SEEDS II (CO-66)        
1 32791U 08021J   26068.92109284  .00023758  00000+0  84213-3 0  9995
2 32791  97.7519  62.3611 0001448 359.2618   0.8619 15.29097235972108
STARLINK-31760          
1 59869U 24098M   26067.97497375 -.00003597  00000+0 -12119-3 0  9994
2 59869  43.0007 282.3086 0001547 268.2313  91.8362 15.27590493101730
